OBJECT_NAME,OBJECT_ID,EPOCH,MEAN_MOTION,ECCENTRICITY,INCLINATION,RA_OF_ASC_NODE,ARG_OF_PERICENTER,MEAN_ANOMALY,EPHEMERIS_TYPE,CLASSIFICATION_TYPE,NORAD_CAT_ID,ELEMENT_SET_NO,REV_AT_EPOCH,BSTAR,MEAN_MOTION_DOT,MEAN_MOTION_DDOT
ONEWEB-0162,2021-025Q,2026-06-08T23:29:34.562400,13.13469296,.0001978,87.8952,321.8582,93.7504,266.3851,0,U,48056,999,25246,.97527E-3,.369E-5,0
ONEWEB-0155,2021-025R,2026-06-09T03:18:54.576288,13.13469336,.0001702,87.8953,321.8225,99.5941,260.5381,0,U,48057,999,25262,.78575E-3,.3E-5,0
ONEWEB-0149,2021-025S,2026-06-09T03:50:36.122784,13.13469871,.0002021,87.8956,321.8212,93.4870,266.6490,0,U,48058,999,25243,-.59298E-3,-.204E-5,0
ONEWEB-0148,2021-025T,2026-06-08T23:17:35.029248,13.13470128,.0002393,87.8947,321.8669,96.7267,263.4134,0,U,48059,999,25253,.75461E-3,.288E-5,0
ONEWEB-0160,2021-025U,2026-06-09T03:21:21.004416,13.13470160,.0001655,87.8949,321.8290,70.1049,290.0258,0,U,48060,999,25250,.72507E-3,.278E-5,0
ONEWEB-0163,2021-025V,2026-06-08T23:20:00.956256,13.13470984,.0001855,87.8951,321.8564,104.3027,255.8308,0,U,48061,999,25260,.77273E-3,.295E-5,0
ONEWEB-0159,2021-025W,2026-06-08T23:07:49.727136,13.13470769,.0001817,87.8956,321.8517,102.8589,257.2743,0,U,48062,999,25252,.48115E-3,.188E-5,0
ONEWEB-0164,2021-025X,2026-06-09T04:10:05.512224,13.13469645,.0001755,87.8960,321.8164,92.9615,267.1715,0,U,48063,999,25253,-.84229E-3,-.295E-5,0
ONEWEB-0167,2021-025Y,2026-06-08T23:21:13.065696,13.13472350,.0001384,87.8944,321.8666,115.1590,244.9683,0,U,48064,999,25249,.97092E-3,.367E-5,0
ONEWEB-0166,2021-025Z,2026-06-09T03:33:31.323744,13.13471062,.0001987,87.8959,321.8022,96.7050,263.4306,0,U,48065,999,25259,.20565E-3,.88E-6,0
ONEWEB-0151,2021-025AA,2026-06-09T03:35:57.761376,13.13469633,.0001672,87.8948,321.8194,96.1471,263.9848,0,U,48066,999,25253,.16667E-3,.74E-6,0
ONEWEB-0170,2021-025AB,2026-06-09T03:48:09.152064,13.13469491,.0001394,87.8949,321.8193,86.5318,273.5970,0,U,48067,999,25249,-.48687E-3,-.165E-5,0
ONEWEB-0168,2021-025AC,2026-06-09T03:26:13.103808,13.13469365,.0001884,87.8958,321.8220,100.0115,260.1226,0,U,48068,999,25250,.54621E-3,.212E-5,0
ONEWEB-0173,2021-025AD,2026-06-08T23:34:38.620416,13.13469376,.0001754,87.8951,321.8562,107.3319,252.8002,0,U,48069,999,25272,.78778E-3,.3E-5,0
ONEWEB-0171,2021-025AE,2026-06-09T04:07:39.444384,13.13470188,.0001712,87.8945,321.8269,95.1593,264.9732,0,U,48070,999,25256,-.72761E-3,-.253E-5,0
ONEWEB-0172,2021-025AF,2026-06-09T03:38:24.063360,13.13470484,.0001685,87.8955,321.8201,98.8411,261.2909,0,U,48071,999,25345,-.58685E-4,-.9E-7,0
ONEWEB-0174,2021-025AG,2026-06-08T23:32:13.083072,13.13469558,.000196,87.8951,321.8538,96.4017,263.7335,0,U,48072,999,25275,.81216E-3,.309E-5,0
ONEWEB-0175,2021-025AH,2026-06-09T03:55:28.363008,13.13470074,.0001453,87.8958,321.8008,95.8637,264.2658,0,U,48073,999,25243,-.60351E-3,-.208E-5,0
ONEWEB-0177,2021-025AJ,2026-06-08T20:53:44.956608,13.13470779,.0001974,87.8954,321.8784,100.5165,259.6187,0,U,48074,999,25258,-.58622E-3,-.201E-5,0
ONEWEB-0178,2021-025AK,2026-06-08T23:10:26.734080,13.13471641,.0001609,87.8939,321.8732,102.0279,258.1031,0,U,48075,999,25264,.49031E-3,.192E-5,0
ONEWEB-0108,2021-025AL,2026-06-09T03:40:50.609856,13.13469541,.0001945,87.8959,321.8128,88.7184,271.4168,0,U,48076,999,25259,-.85844E-4,-.19E-6,0
ONEWEB-0169,2021-025AM,2026-06-08T21:08:22.620768,13.13470349,.0001924,87.8949,321.8760,95.9279,264.2069,0,U,48077,999,25121,.17842E-3,.78E-6,0
ONEWEB-0176,2021-031A,2026-06-09T02:39:08.002656,13.14503166,.0001805,87.8956,291.3093,102.9045,257.2287,0,U,48210,999,24725,.37499E-3,.152E-5,0
ONEWEB-0184,2021-031B,2026-06-09T02:00:18.008928,13.14502164,.0001228,87.8962,291.3151,119.2462,240.8790,0,U,48211,999,24722,-.5114E-3,-.177E-5,0
ONEWEB-0179,2021-031C,2026-06-09T02:13:35.626080,14.25517524,.0218658,87.8983,288.9213,283.8903,73.8053,0,U,48212,999,24789,.66733E-4,.219E-5,0
ONEWEB-0180,2021-031D,2026-06-08T20:36:02.706624,13.14502171,.000203,87.8962,291.3567,113.9616,246.1726,0,U,48213,999,24712,-.67613E-3,-.238E-5,0
ONEWEB-0218,2021-031E,2026-06-08T21:08:00.845376,13.14502179,.0001443,87.8965,291.3507,128.1160,232.0100,0,U,48214,999,24728,.34848E-3,.142E-5,0
ONEWEB-0209,2021-031F,2026-06-09T02:20:50.227584,13.14505313,.0002034,87.8955,291.3251,105.6959,254.4395,0,U,48215,999,24731,-.24324E-3,-.77E-6,0
ONEWEB-0198,2021-031G,2026-06-09T01:58:13.363968,13.14502070,.0001854,87.8949,291.3281,113.8311,246.3013,0,U,48216,999,24742,-.61343E-3,-.215E-5,0
ONEWEB-0189,2021-031H,2026-06-09T02:16:17.664960,13.14502824,.0001859,87.8960,291.3108,111.0809,249.0520,0,U,48217,999,24716,-.38432E-3,-.13E-5,0
