ONEWEB-0162             
1 48056U 21025Q   26159.97887225  .00000369  00000+0  97527-3 0  9994
2 48056  87.8952 321.8582 0001978  93.7504 266.3851 13.13469296252460
ONEWEB-0155             
1 48057U 21025R   26160.13813167  .00000300  00000+0  78575-3 0  9996
2 48057  87.8953 321.8225 0001702  99.5941 260.5381 13.13469336252627
ONEWEB-0149             
1 48058U 21025S   26160.16014031 -.00000204  00000+0 -59298-3 0  9999
2 48058  87.8956 321.8212 0002021  93.4870 266.6490 13.13469871252437
ONEWEB-0148             
1 48059U 21025T   26159.97054432  .00000288  00000+0  75461-3 0  9996
2 48059  87.8947 321.8669 0002393  96.7267 263.4134 13.13470128252530
ONEWEB-0160             
1 48060U 21025U   26160.13982644  .00000278  00000+0  72507-3 0  9990
2 48060  87.8949 321.8290 0001655  70.1049 290.0258 13.13470160252504
ONEWEB-0163             
1 48061U 21025V   26159.97223329  .00000295  00000+0  77273-3 0  9993
2 48061  87.8951 321.8564 0001855 104.3027 255.8308 13.13470984252600
ONEWEB-0159             
1 48062U 21025W   26159.96376999  .00000188  00000+0  48115-3 0  9999
2 48062  87.8956 321.8517 0001817 102.8589 257.2743 13.13470769252529
ONEWEB-0164             
1 48063U 21025X   26160.17367491 -.00000295  00000+0 -84229-3 0  9999
2 48063  87.8960 321.8164 0001755  92.9615 267.1715 13.13469645252534
ONEWEB-0167             
1 48064U 21025Y   26159.97306789  .00000367  00000+0  97092-3 0  9999
2 48064  87.8944 321.8666 0001384 115.1590 244.9683 13.13472350252491
ONEWEB-0166             
1 48065U 21025Z   26160.14827921  .00000088  00000+0  20565-3 0  9998
2 48065  87.8959 321.8022 0001987  96.7050 263.4306 13.13471062252596
ONEWEB-0151             
1 48066U 21025AA  26160.14997409  .00000074  00000+0  16667-3 0  9991
2 48066  87.8948 321.8194 0001672  96.1471 263.9848 13.13469633252538
ONEWEB-0170             
1 48067U 21025AB  26160.15843926 -.00000165  00000+0 -48687-3 0  9997
2 48067  87.8949 321.8193 0001394  86.5318 273.5970 13.13469491252493
ONEWEB-0168             
1 48068U 21025AC  26160.14320722  .00000212  00000+0  54621-3 0  9997
2 48068  87.8958 321.8220 0001884 100.0115 260.1226 13.13469365252504
ONEWEB-0173             
1 48069U 21025AD  26159.98239144  .00000300  00000+0  78778-3 0  9992
2 48069  87.8951 321.8562 0001754 107.3319 252.8002 13.13469376252725
ONEWEB-0171             
1 48070U 21025AE  26160.17198431 -.00000253  00000+0 -72761-3 0  9995
2 48070  87.8945 321.8269 0001712  95.1593 264.9732 13.13470188252565
ONEWEB-0172             
1 48071U 21025AF  26160.15166740 -.00000009  00000+0 -58685-4 0  9991
2 48071  87.8955 321.8201 0001685  98.8411 261.2909 13.13470484253455
ONEWEB-0174             
1 48072U 21025AG  26159.98070698  .00000309  00000+0  81216-3 0  9993
2 48072  87.8951 321.8538 0001960  96.4017 263.7335 13.13469558252759
ONEWEB-0175             
1 48073U 21025AH  26160.16352272 -.00000208  00000+0 -60351-3 0  9994
2 48073  87.8958 321.8008 0001453  95.8637 264.2658 13.13470074252431
ONEWEB-0177             
1 48074U 21025AJ  26159.87065922 -.00000201  00000+0 -58622-3 0  9995
2 48074  87.8954 321.8784 0001974 100.5165 259.6187 13.13470779252580
ONEWEB-0178             
1 48075U 21025AK  26159.96558720  .00000192  00000+0  49031-3 0  9990
2 48075  87.8939 321.8732 0001609 102.0279 258.1031 13.13471641252643
ONEWEB-0108             
1 48076U 21025AL  26160.15336354 -.00000019  00000+0 -85844-4 0  9994
2 48076  87.8959 321.8128 0001945  88.7184 271.4168 13.13469541252592
ONEWEB-0169             
1 48077U 21025AM  26159.88081737  .00000078  00000+0  17842-3 0  9990
2 48077  87.8949 321.8760 0001924  95.9279 264.2069 13.13470349251212
ONEWEB-0176             
1 48210U 21031A   26160.11050929  .00000152  00000+0  37499-3 0  9996
2 48210  87.8956 291.3093 0001805 102.9045 257.2287 13.14503166247255
ONEWEB-0184             
1 48211U 21031B   26160.08354177 -.00000177  00000+0 -51140-3 0  9993
2 48211  87.8962 291.3151 0001228 119.2462 240.8790 13.14502164247222
ONEWEB-0179             
1 48212U 21031C   26160.09277345  .00000219  00000+0  66733-4 0  9996
2 48212  87.8983 288.9213 0218658 283.8903  73.8053 14.25517524247890
ONEWEB-0180             
1 48213U 21031D   26159.85836466 -.00000238  00000+0 -67613-3 0  9994
2 48213  87.8962 291.3567 0002030 113.9616 246.1726 13.14502171247124
ONEWEB-0218             
1 48214U 21031E   26159.88056534  .00000142  00000+0  34848-3 0  9994
2 48214  87.8965 291.3507 0001443 128.1160 232.0100 13.14502179247286
ONEWEB-0209             
1 48215U 21031F   26160.09780356 -.00000077  00000+0 -24324-3 0  9993
2 48215  87.8955 291.3251 0002034 105.6959 254.4395 13.14505313247316
ONEWEB-0198             
1 48216U 21031G   26160.08209912 -.00000215  00000+0 -61343-3 0  9993
2 48216  87.8949 291.3281 0001854 113.8311 246.3013 13.14502070247421
ONEWEB-0189             
1 48217U 21031H   26160.09464890 -.00000130  00000+0 -38432-3 0  9992
2 48217  87.8960 291.3108 0001859 111.0809 249.0520 13.14502824247161
